NORAD_CAT_ID,OBJECT_NAME,OBJECT_TYPE,EPOCH,MEAN_MOTION,ECCENTRICITY,INCLINATION,RA_OF_ASC_NODE,ARG_OF_PERICENTER,MEAN_ANOMALY,BSTAR,MEAN_MOTION_DOT,MEAN_MOTION_DDOT,TLE_LINE0,TLE_LINE1,TLE_LINE2,SEMIMAJOR_AXIS,PERIOD,APOGEE,PERIGEE,DECAYED
52659.0,STARLINK-3960,PAYLOAD,2024-02-18 22:04:35,15.08852567,0.0001402,53.2161,279.9224,89.1215,270.9938,-5.3864e-05,-1.145e-05,0.0,0 STARLINK-3960,1 52659U 22053D   24049.91984971 -.00001145  00000-0 -53864-4 0  9999,2 52659  53.2161 279.9224 0001402  89.1215 270.9938 15.08852567 98030,6917.842,95.437,540.677,538.737,0.0
52659.0,STARLINK-3960,PAYLOAD,2024-02-19 01:15:21,15.08852099,0.0001534,53.2166,279.3255,97.0017,263.1149,5.1562e-06,-2.06e-06,0.0,0 STARLINK-3960,1 52659U 22053D   24050.05232696 -.00000206  00000-0  51562-5 0  9996,2 52659  53.2166 279.3255 0001534  97.0017 263.1149 15.08852099 98057,6917.843,95.437,540.77,538.647,0.0
52659.0,STARLINK-3960,PAYLOAD,2024-02-19 20:19:59,15.08832453,0.000168,53.2179,275.7552,109.6155,250.5019,-2.0824e-05,-6.19e-06,0.0,0 STARLINK-3960,1 52659U 22053D   24050.84721963 -.00000619  00000-0 -20824-4 0  9998,2 52659  53.2179 275.7552 0001680 109.6155 250.5019 15.08832453 98188,6917.903,95.438,540.931,538.606,0.0
52659.0,STARLINK-3960,PAYLOAD,2024-02-19 21:55:22,15.08838024,0.0001304,53.2167,275.461,102.8748,257.2389,-3.9864e-05,-9.22e-06,0.0,0 STARLINK-3960,1 52659U 22053D   24050.91345679 -.00000922  00000-0 -39864-4 0  9993,2 52659  53.2167 275.4610 0001304 102.8748 257.2389 15.08838024 98187,6917.886,95.438,540.654,538.849,0.0
52659.0,STARLINK-3960,PAYLOAD,2024-02-20 07:27:41,15.08839011,0.0001262,53.2163,273.6757,101.4203,258.6931,-3.396e-05,-8.28e-06,0.0,0 STARLINK-3960,1 52659U 22053D   24051.31089655 -.00000828  00000-0 -33960-4 0  9993,2 52659  53.2163 273.6757 0001262 101.4203 258.6931 15.08839011 98252,6917.883,95.438,540.621,538.875,0.0
52659.0,STARLINK-3960,PAYLOAD,2024-02-20 21:46:09,15.08837521,0.0001266,53.2159,271.0002,104.9399,255.1733,1.8573e-05,8e-08,0.0,0 STARLINK-3960,1 52659U 22053D   24051.90705855  .00000008  00000-0  18573-4 0  9996,2 52659  53.2159 271.0002 0001266 104.9399 255.1733 15.08837521 98335,6917.888,95.438,540.629,538.877,0.0
52659.0,STARLINK-3960,PAYLOAD,2024-02-21 00:56:55,15.08840587,0.0001212,53.216,270.405,100.7344,259.3785,6.2333e-05,7.04e-06,0.0,0 STARLINK-3960,1 52659U 22053D   24052.03953573  .00000704  00000-0  62333-4 0  9999,2 52659  53.2160 270.4050 0001212 100.7344 259.3785 15.08840587 98359,6917.879,95.438,540.582,538.905,0.0
52659.0,STARLINK-3960,PAYLOAD,2024-02-21 20:01:33,15.08839199,0.0001296,53.216,266.8366,106.147,253.9664,7.8726e-05,9.65e-06,0.0,0 STARLINK-3960,1 52659U 22053D   24052.83441758  .00000965  00000-0  78726-4 0  9996,2 52659  53.2160 266.8366 0001296 106.1470 253.9664 15.08839199 98487,6917.883,95.438,540.644,538.851,0.0
52659.0,STARLINK-3960,PAYLOAD,2024-02-21 21:36:56,15.08840929,0.0001153,53.2158,266.5381,96.9261,263.1862,8.712e-05,1.099e-05,0.0,0 STARLINK-3960,1 52659U 22053D   24052.90065633  .00001099  00000-0  87120-4 0  9995,2 52659  53.2158 266.5381 0001153  96.9261 263.1862 15.08840929 98480,6917.878,95.437,540.54,538.945,0.0
52659.0,STARLINK-3960,PAYLOAD,2024-02-22 07:09:15,15.08842972,0.0001128,53.2157,264.7535,90.132,269.9801,0.00010121,1.323e-05,0.0,0 STARLINK-3960,1 52659U 22053D   24053.29809451  .00001323  00000-0  10121-3 0  9998,2 52659  53.2157 264.7535 0001128  90.1320 269.9801 15.08842972 98548,6917.871,95.437,540.517,538.956,0.0
52659.0,STARLINK-3960,PAYLOAD,2024-02-22 21:27:44,15.088259,0.0001299,53.2162,262.0781,89.7533,270.3608,0.0002409,3.547e-05,0.0,0 STARLINK-3960,1 52659U 22053D   24053.89426037  .00003547  00000-0  24090-3 0  9999,2 52659  53.2162 262.0781 0001299  89.7533 270.3608 15.08825900 98630,6917.923,95.438,540.687,538.89,0.0
52659.0,STARLINK-3960,PAYLOAD,2024-02-23 07:00:02,15.08847159,0.0001387,53.2177,260.2943,88.4725,271.6426,-1.7159e-05,-5.61e-06,0.0,0 STARLINK-3960,1 52659U 22053D   24054.29169519 -.00000561  00000-0 -17159-4 0  9997,2 52659  53.2177 260.2943 0001387  88.4725 271.6426 15.08847159 98703,6917.859,95.437,540.683,538.764,0.0
52659.0,STARLINK-3960,PAYLOAD,2024-02-23 13:21:35,15.08841381,0.0001366,53.217,259.1064,86.1529,273.9619,5.1163e-05,5.26e-06,0.0,0 STARLINK-3960,1 52659U 22053D   24054.55665720  .00000526  00000-0  51163-4 0  9993,2 52659  53.2170 259.1064 0001366  86.1529 273.9619 15.08841381 98734,6917.876,95.437,540.686,538.796,0.0
52659.0,STARLINK-3960,PAYLOAD,2024-02-23 19:43:08,15.0883734,7.17e-05,53.2167,257.9153,84.4472,275.6602,-3.3044e-05,-8.13e-06,0.0,0 STARLINK-3960,1 52659U 22053D   24054.82162055 -.00000813  00000-0 -33044-4 0  9995,2 52659  53.2167 257.9153 0000717  84.4472 275.6602 15.08837340 98788,6917.889,95.438,540.25,539.258,0.0
52659.0,STARLINK-3960,PAYLOAD,2024-02-24 06:50:49,15.08842966,0.0001172,53.2164,255.8333,92.1282,267.9844,1.7026e-05,-1.7e-07,0.0,0 STARLINK-3960,1 52659U 22053D   24055.28529503 -.00000017  00000-0  17026-4 0  9998,2 52659  53.2164 255.8333 0001172  92.1282 267.9844 15.08842966 98853,6917.871,95.437,540.547,538.926,0.0
52659.0,STARLINK-3960,PAYLOAD,2024-02-24 13:12:22,15.08838716,0.0001308,53.2166,254.6434,95.7528,264.3613,2.9763e-05,1.86e-06,0.0,0 STARLINK-3960,1 52659U 22053D   24055.55025794  .00000186  00000-0  29763-4 0  9998,2 52659  53.2166 254.6434 0001308  95.7528 264.3613 15.08838716 98883,6917.884,95.438,540.654,538.844,0.0
52659.0,STARLINK-3960,PAYLOAD,2024-02-24 19:33:54,15.08839351,9.63e-05,53.2165,253.4545,93.3888,266.7214,4.9452e-05,4.99e-06,0.0,0 STARLINK-3960,1 52659U 22053D   24055.81521639  .00000499  00000-0  49452-4 0  9990,2 52659  53.2165 253.4545 0000963  93.3888 266.7214 15.08839351 98925,6917.882,95.438,540.414,539.081,0.0
52659.0,STARLINK-3960,PAYLOAD,2024-02-25 06:41:36,15.08841665,0.0001271,53.217,251.3725,98.2717,261.8419,4.5261e-05,4.33e-06,0.0,0 STARLINK-3960,1 52659U 22053D   24056.27889507  .00000433  00000-0  45261-4 0  9994,2 52659  53.2170 251.3725 0001271  98.2717 261.8419 15.08841665 98997,6917.875,95.437,540.62,538.861,0.0
52659.0,STARLINK-3960,PAYLOAD,2024-02-25 19:24:41,15.08843492,0.0001142,53.2164,248.994,95.005,265.1073,0.00011739,1.581e-05,0.0,0 STARLINK-3960,1 52659U 22053D   24056.80881130  .00001581  00000-0  11739-3 0  9994,2 52659  53.2164 248.9940 0001142  95.0050 265.1073 15.08843492 99087,6917.87,95.437,540.525,538.945,0.0
52659.0,STARLINK-3960,PAYLOAD,2024-02-25 22:35:27,15.0885509,0.000107,53.2162,248.398,100.9801,259.1311,1.9862e-05,2.8e-07,0.0,0 STARLINK-3960,1 52659U 22053D   24056.94128529  .00000028  00000-0  19862-4 0  9996,2 52659  53.2162 248.3980 0001070 100.9801 259.1311 15.08855090 99099,6917.834,95.437,540.439,538.959,0.0
52659.0,STARLINK-3960,PAYLOAD,2024-02-26 12:53:56,15.08829919,0.0001144,53.2162,245.7223,92.4732,267.6391,-6.0248e-06,-3.84e-06,0.0,0 STARLINK-3960,1 52659U 22053D   24057.53746460 -.00000384  00000-0 -60248-5 0  9994,2 52659  53.2162 245.7223 0001144  92.4732 267.6391 15.08829919 99183,6917.911,95.438,540.568,538.985,0.0
52659.0,STARLINK-3960,PAYLOAD,2024-02-26 17:40:06,15.08833366,0.0001496,53.2149,244.8259,110.2752,249.8401,-1.8156e-05,-5.77e-06,0.0,0 STARLINK-3960,1 52659U 22053D   24057.73618326 -.00000577  00000-0 -18156-4 0  9999,2 52659  53.2149 244.8259 0001496 110.2752 249.8401 15.08833366 99228,6917.901,95.438,540.801,538.731,0.0
52659.0,STARLINK-3960,PAYLOAD,2024-02-27 12:44:45,15.0881964,0.000121,53.216,241.263,85.232,274.8811,-0.00012858,-2.332e-05,0.0,0 STARLINK-3960,1 52659U 22053D   24058.53108367 -.00002332  00000-0 -12858-3 0  9990,2 52659  53.2160 241.2630 0001210  85.2320 274.8811 15.08819640 99335,6917.943,95.439,540.645,538.971,0.0
52659.0,STARLINK-3960,PAYLOAD,2024-02-27 19:06:18,15.08820073,0.000128,53.2161,240.0737,96.5938,263.52,-0.00012071,-2.207e-05,0.0,0 STARLINK-3960,1 52659U 22053D   24058.79604591 -.00002207  00000-0 -12071-3 0  9996,2 52659  53.2161 240.0737 0001280  96.5938 263.5200 15.08820073 99382,6917.941,95.439,540.692,538.921,0.0
52659.0,STARLINK-3960,PAYLOAD,2024-02-27 22:17:04,15.08823028,0.0001263,53.216,239.478,93.1091,267.0045,-0.00012405,-2.261e-05,0.0,0 STARLINK-3960,1 52659U 22053D   24058.92852584 -.00002261  00000-0 -12405-3 0  9999,2 52659  53.2160 239.4780 0001263  93.1091 267.0045 15.08823028 99395,6917.932,95.439,540.671,538.924,0.0
52659.0,STARLINK-3960,PAYLOAD,2024-02-28 12:35:32,15.08826018,9.33e-05,53.2157,236.8007,97.7296,262.3802,8.2542e-05,1.026e-05,0.0,0 STARLINK-3960,1 52659U 22053D   24059.52468156  .00001026  00000-0  82542-4 0  9990,2 52659  53.2157 236.8007 0000933  97.7296 262.3802 15.08826018 99496,6917.923,95.438,540.434,539.143,0.0
52659.0,STARLINK-3960,PAYLOAD,2024-02-28 18:57:04,15.08835312,0.0001231,53.2152,235.6124,100.5033,259.6097,0.00018884,2.718e-05,0.0,0 STARLINK-3960,1 52659U 22053D   24059.78963526  .00002718  00000-0  18884-3 0  9995,2 52659  53.2152 235.6124 0001231 100.5033 259.6097 15.08835312 99539,6917.895,95.438,540.611,538.908,0.0
52659.0,STARLINK-3960,PAYLOAD,2024-02-29 04:29:23,15.08839459,0.0001267,53.2158,233.828,99.9076,260.2059,0.00027528,4.096e-05,0.0,0 STARLINK-3960,1 52659U 22053D   24060.18707214  .00004096  00000-0  27528-3 0  9997,2 52659  53.2158 233.8280 0001267  99.9076 260.2059 15.08839459 99582,6917.882,95.438,540.624,538.871,0.0
52659.0,STARLINK-3960,PAYLOAD,2024-02-29 17:12:27,15.08849546,0.0001218,53.2156,231.4488,100.0423,260.0706,0.00033366,5.028e-05,0.0,0 STARLINK-3960,1 52659U 22053D   24060.71698457  .00005028  00000-0  33366-3 0  9997,2 52659  53.2156 231.4488 0001218 100.0423 260.0706 15.08849546 99675,6917.851,95.437,540.559,538.874,0.0
52659.0,STARLINK-3960,PAYLOAD,2024-02-29 20:23:13,15.08853829,0.0001221,53.2155,230.8539,98.3455,261.7675,0.00036884,5.589e-05,0.0,0 STARLINK-3960,1 52659U 22053D   24060.84946183  .00005589  00000-0  36884-3 0  9993,2 52659  53.2155 230.8539 0001221  98.3455 261.7675 15.08853829 99685,6917.838,95.437,540.548,538.858,0.0
